[{"OBJECT_NAME":"STEP CUBE LAB-II","OBJECT_ID":"2022-065D","EPOCH":"2026-03-09T21:53:04.022304","MEAN_MOTION":14.63120511,"ECCENTRICITY":0.00081203,"INCLINATION":98.2053,"RA_OF_ASC_NODE":213.2152,"ARG_OF_PERICENTER":344.1456,"MEAN_ANOMALY":15.9491,"EPHEMERIS_TYPE":0,"CLASSIFICATION_TYPE":"U","NORAD_CAT_ID":52897,"ELEMENT_SET_NO":999,"REV_AT_EPOCH":19698,"BSTAR":0.00036922387,"MEAN_MOTION_DOT":1.85e-5,"MEAN_MOTION_DDOT":0},{"OBJECT_NAME":"QUIKSCAT","OBJECT_ID":"1999-034A","EPOCH":"2026-03-09T16:44:58.473600","MEAN_MOTION":14.51654286,"ECCENTRICITY":0.00942938,"INCLINATION":98.284,"RA_OF_ASC_NODE":310.7638,"ARG_OF_PERICENTER":227.4146,"MEAN_ANOMALY":131.9066,"EPHEMERIS_TYPE":0,"CLASSIFICATION_TYPE":"U","NORAD_CAT_ID":25789,"ELEMENT_SET_NO":999,"REV_AT_EPOCH":39808,"BSTAR":0.00010554554,"MEAN_MOTION_DOT":3.99e-6,"MEAN_MOTION_DDOT":0}]
